ONEWEB-0053             
1 45157U 20008AC  24064.45983863  .00000253  00000+0  68940-3 0  9993
2 45157  87.8956 202.1198 0001805 106.3365 253.7961 13.10370615198590
ONEWEB-0054             
1 45158U 20008AD  24064.41921060 -.00000288  00000+0 -86172-3 0  9998
2 45158  87.8962 202.1120 0001674 105.1996 254.9317 13.10375914198702
ONEWEB-0056             
1 45159U 20008AE  24064.39971282 -.00000435  00000+0 -12826-2 0  9995
2 45159  87.8955 202.1107 0001844 103.4292 256.7041 13.10371462198853
ONEWEB-0057             
1 45160U 20008AF  24064.40622766 -.00000620  00000+0 -18121-2 0  9999
2 45160  87.8962 202.1075 0001715 100.1712 259.9609 13.10373729199028
ONEWEB-0058             
1 45161U 20008AG  24064.39335822 -.00000210  00000+0 -63736-3 0  9990
2 45161  87.8950 202.1520 0001612  98.6555 261.4754 13.10370552199090
ONEWEB-0059             
1 45162U 20008AH  24064.38997307 -.00000068  00000+0 -23073-3 0  9993
2 45162  87.8957 202.1273 0001592  99.7727 260.3580 13.10371795198996
ONEWEB-0062             
1 45163U 20008AJ  24064.41758409 -.00000364  00000+0 -10782-2 0  9997
2 45163  87.8963 202.1076 0001654 106.5004 253.6306 13.10375312198865
ONEWEB-0065             
1 45164U 20008AK  24064.39485371 -.00000254  00000+0 -76411-3 0  9990
2 45164  87.8960 202.1139 0001822 104.3448 255.7881 13.10371455198559
